[{"OBJECT_NAME":"IRIDIUM 160","OBJECT_ID":"2018-061A","EPOCH":"2026-03-09T22:03:46.499616","MEAN_MOTION":14.34217171,"ECCENTRICITY":0.00022327,"INCLINATION":86.3914,"RA_OF_ASC_NODE":98.3199,"ARG_OF_PERICENTER":91.5582,"MEAN_ANOMALY":268.587,"EPHEMERIS_TYPE":0,"CLASSIFICATION_TYPE":"U","NORAD_CAT_ID":43569,"ELEMENT_SET_NO":999,"REV_AT_EPOCH":39914,"BSTAR":-1.4041758e-5,"MEAN_MOTION_DOT":-2.0e-7,"MEAN_MOTION_DDOT":0},{"OBJECT_NAME":"COSMOS 1867 COOLANT","OBJECT_ID":"1987-060AH","EPOCH":"2026-03-09T01:07:12.720000","MEAN_MOTION":14.33923572,"ECCENTRICITY":0.00137117,"INCLINATION":65.0095,"RA_OF_ASC_NODE":290.5603,"ARG_OF_PERICENTER":280.6978,"MEAN_ANOMALY":79.2563,"EPHEMERIS_TYPE":0,"CLASSIFICATION_TYPE":"U","NORAD_CAT_ID":39670,"ELEMENT_SET_NO":999,"REV_AT_EPOCH":62228,"BSTAR":0.00015571588,"MEAN_MOTION_DOT":3.35e-6,"MEAN_MOTION_DDOT":0}]
